{"type":"FeatureCollection","name":"caloocan-barangays","properties":{"source":"PSA PSGC administrative boundaries (Dec 2023), via faeldon/philippines-json-maps (medium resolution)","city":"City of Caloocan","city_psgc":"1380100000","feature_count":188},"features":[{"type":"Feature","properties":{"psgc_code":"1380100001","name":"Barangay 1"},"geometry":{"type":"Polygon","coordinates":[[[120.97384002000001,14.657502985000063],[120.97358366100002,14.660443299000065],[120.97266981800009,14.659870105000042],[120.97277513200002,14.657589873000065],[120.97384002000001,14.657502985000063]]]}},{"type":"Feature","properties":{"psgc_code":"1380100002","name":"Barangay 2"},"geometry":{"type":"Polygon","coordinates":[[[120.97343876700006,14.661923152000037],[120.97040493500003,14.660586521000031],[120.97073220300003,14.659730051000057],[120.97266981800009,14.659870105000042],[120.97358366100002,14.660443299000065],[120.97343876700006,14.661923152000037]]]}},{"type":"Feature","properties":{"psgc_code":"1380100003","name":"Barangay 3"},"geometry":{"type":"Polygon","coordinates":[[[120.97277513200002,14.657589873000065],[120.97266981800009,14.659870105000042],[120.97073220300003,14.659730051000057],[120.97134134300006,14.65794432300004],[120.97277513200002,14.657589873000065]]]}},{"type":"Feature","properties":{"psgc_code":"1380100004","name":"Barangay 4"},"geometry":{"type":"Polygon","coordinates":[[[120.97073220300003,14.659730051000057],[120.97040493500003,14.660586521000031],[120.96772549,14.658533070000034],[120.96972230800009,14.658199608000075],[120.97134134300006,14.65794432300004],[120.97073220300003,14.659730051000057]]]}},{"type":"Feature","properties":{"psgc_code":"1380100005","name":"Barangay 5"},"geometry":{"type":"Polygon","coordinates":[[[120.97277513200002,14.657589873000065],[120.97134134300006,14.65794432300004],[120.97160923400008,14.656601310000038],[120.97182582500011,14.65530716500007],[120.97184794700001,14.655186368000042],[120.97414732100005,14.655455364000032],[120.97384002000001,14.657502985000063],[120.97277513200002,14.657589873000065]]]}},{"type":"Feature","properties":{"psgc_code":"1380100006","name":"Barangay 6"},"geometry":{"type":"Polygon","coordinates":[[[120.97134134300006,14.65794432300004],[120.96972230800009,14.658199608000075],[120.969474837,14.656914952000026],[120.97160923400008,14.656601310000038],[120.97134134300006,14.65794432300004]]]}},{"type":"Feature","properties":{"psgc_code":"1380100007","name":"Barangay 7"},"geometry":{"type":"Polygon","coordinates":[[[120.97160923400008,14.656601310000038],[120.969474837,14.656914952000026],[120.96932160000006,14.655576143000072],[120.96946566200008,14.654925424000053],[120.97071361500002,14.65484734200004],[120.97182582500011,14.65530716500007],[120.97160923400008,14.656601310000038]]]}},{"type":"Feature","properties":{"psgc_code":"1380100008","name":"Barangay 8"},"geometry":{"type":"Polygon","coordinates":[[[120.96772549,14.658533070000034],[120.96182869100004,14.65945243400006],[120.96357547800007,14.65471132300007],[120.96932160000006,14.655576143000072],[120.969474837,14.656914952000026],[120.96972230800009,14.658199608000075],[120.96772549,14.658533070000034]]]}},{"type":"Feature","properties":{"psgc_code":"1380100009","name":"Barangay 9"},"geometry":{"type":"Polygon","coordinates":[[[120.97462417800013,14.653049331000032],[120.97414732100005,14.655455364000032],[120.97184794700001,14.655186368000042],[120.97203918400011,14.653308334000027],[120.97360771800004,14.651013816000049],[120.9749584000001,14.651329031000039],[120.97462417800013,14.653049331000032]]]}},{"type":"Feature","properties":{"psgc_code":"1380100010","name":"Barangay 10"},"geometry":{"type":"Polygon","coordinates":[[[120.97184794700001,14.655186368000042],[120.97182582500011,14.65530716500007],[120.97071361500002,14.65484734200004],[120.9716524260001,14.653290493000044],[120.97203918400011,14.653308334000027],[120.97184794700001,14.655186368000042]]]}},{"type":"Feature","properties":{"psgc_code":"1380100011","name":"Barangay 11"},"geometry":{"type":"Polygon","coordinates":[[[120.97071361500002,14.65484734200004],[120.96946566200008,14.654925424000053],[120.97063750100007,14.652413247000027],[120.9716524260001,14.653290493000044],[120.97071361500002,14.65484734200004]]]}},{"type":"Feature","properties":{"psgc_code":"1380100012","name":"Barangay 12"},"geometry":{"type":"Polygon","coordinates":[[[120.96932160000006,14.655576143000072],[120.96357547800007,14.65471132300007],[120.96486275400002,14.650648591000046],[120.97072920200002,14.652168161000077],[120.97063750100007,14.652413247000027],[120.96946566200008,14.654925424000053],[120.96932160000006,14.655576143000072]]]}},{"type":"Feature","properties":{"psgc_code":"1380100013","name":"Barangay 13"},"geometry":{"type":"Polygon","coordinates":[[[120.97360771800004,14.651013816000049],[120.97203918400011,14.653308334000027],[120.9716524260001,14.653290493000044],[120.97063750100007,14.652413247000027],[120.97072920200002,14.652168161000077],[120.97141043900001,14.651485423000054],[120.972575204,14.650836900000053],[120.97360771800004,14.651013816000049]]]}},{"type":"Feature","properties":{"psgc_code":"1380100014","name":"Barangay 14"},"geometry":{"type":"Polygon","coordinates":[[[120.97072920200002,14.652168161000077],[120.96486275400002,14.650648591000046],[120.96241565300011,14.644711050000067],[120.96782480300008,14.645072691000053],[120.9680197340001,14.646930788000077],[120.96813778500007,14.64789580200005],[120.96807134800007,14.649035341000056],[120.97141043900001,14.651485423000054],[120.97072920200002,14.652168161000077]]]}},{"type":"Feature","properties":{"psgc_code":"1380100015","name":"Barangay 15"},"geometry":{"type":"Polygon","coordinates":[[[120.97517212200012,14.650271070000027],[120.9749584000001,14.651329031000039],[120.97360771800004,14.651013816000049],[120.972575204,14.650836900000053],[120.97210586900006,14.65053903700004],[120.97317878800003,14.64859542300007],[120.97354143300004,14.647466609000052],[120.97408620100009,14.647752870000028],[120.97517212200012,14.650271070000027]]]}},{"type":"Feature","properties":{"psgc_code":"1380100016","name":"Barangay 16"},"geometry":{"type":"Polygon","coordinates":[[[120.972575204,14.650836900000053],[120.97141043900001,14.651485423000054],[120.96807134800007,14.649035341000056],[120.97210586900006,14.65053903700004],[120.972575204,14.650836900000053]]]}},{"type":"Feature","properties":{"psgc_code":"1380100017","name":"Barangay 17"},"geometry":{"type":"Polygon","coordinates":[[[120.97521937600004,14.650089325000069],[120.97517212200012,14.650271070000027],[120.97408620100009,14.647752870000028],[120.97571263800013,14.647684281000064],[120.97546982400002,14.648865127000024],[120.97521937600004,14.650089325000069]]]}},{"type":"Feature","properties":{"psgc_code":"1380100018","name":"Barangay 18"},"geometry":{"type":"Polygon","coordinates":[[[120.97317878800003,14.64859542300007],[120.97210586900006,14.65053903700004],[120.96807134800007,14.649035341000056],[120.96813778500007,14.64789580200005],[120.97317878800003,14.64859542300007]]]}},{"type":"Feature","properties":{"psgc_code":"1380100019","name":"Barangay 19"},"geometry":{"type":"Polygon","coordinates":[[[120.97571263800013,14.647684281000064],[120.97408620100009,14.647752870000028],[120.97354143300004,14.647466609000052],[120.9738319720001,14.646695077000057],[120.97421952800006,14.645706056000053],[120.97611584000002,14.645591419000029],[120.975758959,14.647428775000034],[120.97571263800013,14.647684281000064]]]}},{"type":"Feature","properties":{"psgc_code":"1380100020","name":"Barangay 20"},"geometry":{"type":"Polygon","coordinates":[[[120.97354143300004,14.647466609000052],[120.97317878800003,14.64859542300007],[120.96813778500007,14.64789580200005],[120.9680197340001,14.646930788000077],[120.9738319720001,14.646695077000057],[120.97354143300004,14.647466609000052]]]}},{"type":"Feature","properties":{"psgc_code":"1380100021","name":"Barangay 21"},"geometry":{"type":"Polygon","coordinates":[[[120.97611584000002,14.645591419000029],[120.97421952800006,14.645706056000053],[120.97455206300003,14.644869771000057],[120.9752908570001,14.643071372000065],[120.97658080400005,14.64334186000008],[120.97611584000002,14.645591419000029]]]}},{"type":"Feature","properties":{"psgc_code":"1380100022","name":"Barangay 22"},"geometry":{"type":"Polygon","coordinates":[[[120.9738319720001,14.646695077000057],[120.9680197340001,14.646930788000077],[120.96782480300008,14.645072691000053],[120.97229163600004,14.644172372000067],[120.9737127960001,14.644452383000038],[120.97455206300003,14.644869771000057],[120.97421952800006,14.645706056000053],[120.9738319720001,14.646695077000057]]]}},{"type":"Feature","properties":{"psgc_code":"1380100023","name":"Barangay 23"},"geometry":{"type":"Polygon","coordinates":[[[120.9752908570001,14.643071372000065],[120.97455206300003,14.644869771000057],[120.9737127960001,14.644452383000038],[120.97390234700003,14.642473708000066],[120.975499065,14.642251983000047],[120.9752908570001,14.643071372000065]]]}},{"type":"Feature","properties":{"psgc_code":"1380100024","name":"Barangay 24"},"geometry":{"type":"Polygon","coordinates":[[[120.97390234700003,14.642473708000066],[120.9737127960001,14.644452383000038],[120.97229163600004,14.644172372000067],[120.97209218100011,14.642576454000054],[120.97385446400006,14.64247475800005],[120.97390234700003,14.642473708000066]]]}},{"type":"Feature","properties":{"psgc_code":"1380100025","name":"Barangay 25"},"geometry":{"type":"Polygon","coordinates":[[[120.97658080400005,14.64334186000008],[120.9752908570001,14.643071372000065],[120.975499065,14.642251983000047],[120.97566794600003,14.640873657000043],[120.97699111300007,14.64121530000005],[120.97694427900002,14.641474650000076],[120.97658080400005,14.64334186000008]]]}},{"type":"Feature","properties":{"psgc_code":"1380100026","name":"Barangay 26"},"geometry":{"type":"Polygon","coordinates":[[[120.97390234700003,14.642473708000066],[120.97385446400006,14.64247475800005],[120.97396114300012,14.640153439000066],[120.97568216000002,14.64037424500003],[120.97566794600003,14.640873657000043],[120.975499065,14.642251983000047],[120.97390234700003,14.642473708000066]]]}},{"type":"Feature","properties":{"psgc_code":"1380100027","name":"Barangay 27"},"geometry":{"type":"Polygon","coordinates":[[[120.97209218100011,14.642576454000054],[120.9716681750001,14.641593600000025],[120.97309266800006,14.640150697000022],[120.97396114300012,14.640153439000066],[120.97385446400006,14.64247475800005],[120.97209218100011,14.642576454000054]]]}},{"type":"Feature","properties":{"psgc_code":"1380100028","name":"Barangay 28"},"geometry":{"type":"Polygon","coordinates":[[[120.96782480300008,14.645072691000053],[120.96241565300011,14.644711050000067],[120.96500401800006,14.640342976000056],[120.96893309600011,14.639936878000071],[120.9716681750001,14.641593600000025],[120.97209218100011,14.642576454000054],[120.97229163600004,14.644172372000067],[120.96782480300008,14.645072691000053]]]}},{"type":"Feature","properties":{"psgc_code":"1380100029","name":"Barangay 29"},"geometry":{"type":"Polygon","coordinates":[[[120.97716841800003,14.63975062000003],[120.97699111300007,14.64121530000005],[120.97566794600003,14.640873657000043],[120.97568216000002,14.64037424500003],[120.97568341200008,14.639774827000053],[120.97716841800003,14.63975062000003]]]}},{"type":"Feature","properties":{"psgc_code":"1380100030","name":"Barangay 30"},"geometry":{"type":"Polygon","coordinates":[[[120.97568341200008,14.639774827000053],[120.97568216000002,14.64037424500003],[120.97396114300012,14.640153439000066],[120.97309266800006,14.640150697000022],[120.97307372900002,14.639715609000058],[120.9732901340001,14.63802591800004],[120.97477345700008,14.637922166000068],[120.97558253800003,14.637863898000038],[120.97568341200008,14.639774827000053]]]}},{"type":"Feature","properties":{"psgc_code":"1380100031","name":"Barangay 31"},"geometry":{"type":"Polygon","coordinates":[[[120.9716681750001,14.641593600000025],[120.96893309600011,14.639936878000071],[120.97307372900002,14.639715609000058],[120.97309266800006,14.640150697000022],[120.9716681750001,14.641593600000025]]]}},{"type":"Feature","properties":{"psgc_code":"1380100032","name":"Barangay 32"},"geometry":{"type":"Polygon","coordinates":[[[120.97716841800003,14.63975062000003],[120.97568341200008,14.639774827000053],[120.97558253800003,14.637863898000038],[120.97703716,14.637676955000071],[120.97716841800003,14.63975062000003]]]}},{"type":"Feature","properties":{"psgc_code":"1380100033","name":"Barangay 33"},"geometry":{"type":"Polygon","coordinates":[[[120.97558253800003,14.637863898000038],[120.97477345700008,14.637922166000068],[120.97430855600011,14.635800586000073],[120.97671923900009,14.635176239000032],[120.97700146000012,14.637343188000045],[120.97703716,14.637676955000071],[120.97558253800003,14.637863898000038]]]}},{"type":"Feature","properties":{"psgc_code":"1380100034","name":"Barangay 34"},"geometry":{"type":"Polygon","coordinates":[[[120.97477345700008,14.637922166000068],[120.9732901340001,14.63802591800004],[120.97149126800002,14.635697699000048],[120.97430855600011,14.635800586000073],[120.97477345700008,14.637922166000068]]]}},{"type":"Feature","properties":{"psgc_code":"1380100035","name":"Barangay 35"},"geometry":{"type":"Polygon","coordinates":[[[120.96893309600011,14.639936878000071],[120.96500401800006,14.640342976000056],[120.97149126800002,14.635697699000048],[120.9732901340001,14.63802591800004],[120.97307372900002,14.639715609000058],[120.96893309600011,14.639936878000071]]]}},{"type":"Feature","properties":{"psgc_code":"1380100036","name":"Barangay 36"},"geometry":{"type":"Polygon","coordinates":[[[120.97930323900006,14.63728160100004],[120.97700146000012,14.637343188000045],[120.97671923900009,14.635176239000032],[120.97930323900006,14.63728160100004]]]}},{"type":"Feature","properties":{"psgc_code":"1380100037","name":"Barangay 37"},"geometry":{"type":"Polygon","coordinates":[[[120.97892277400001,14.63811040600007],[120.9778264780001,14.639987632000032],[120.97716841800003,14.63975062000003],[120.97703716,14.637676955000071],[120.97700146000012,14.637343188000045],[120.97930323900006,14.63728160100004],[120.97892277400001,14.63811040600007]]]}},{"type":"Feature","properties":{"psgc_code":"1380100038","name":"Barangay 38"},"geometry":{"type":"Polygon","coordinates":[[[120.97907677300009,14.640493579000065],[120.9778264780001,14.639987632000032],[120.97892277400001,14.63811040600007],[120.97979416600002,14.639568177000054],[120.97980857300001,14.64045889700003],[120.97907677300009,14.640493579000065]]]}},{"type":"Feature","properties":{"psgc_code":"1380100039","name":"Barangay 39"},"geometry":{"type":"Polygon","coordinates":[[[120.98325627300004,14.638094958000064],[120.98188589000007,14.638138671000037],[120.98257059000004,14.636542622000036],[120.98325627300004,14.638094958000064]]]}},{"type":"Feature","properties":{"psgc_code":"1380100040","name":"Barangay 40"},"geometry":{"type":"Polygon","coordinates":[[[120.98121555500008,14.639008265000026],[120.98061426800007,14.639027938000023],[120.98188589000007,14.638138671000037],[120.98325627300004,14.638094958000064],[120.98339907700007,14.638941323000038],[120.98121555500008,14.639008265000026]]]}},{"type":"Feature","properties":{"psgc_code":"1380100041","name":"Barangay 41"},"geometry":{"type":"Polygon","coordinates":[[[120.98344262400008,14.640341589000057],[120.9812310430001,14.640405712000074],[120.98121555500008,14.639008265000026],[120.98339907700007,14.638941323000038],[120.98344262400008,14.640341589000057]]]}},{"type":"Feature","properties":{"psgc_code":"1380100042","name":"Barangay 42"},"geometry":{"type":"Polygon","coordinates":[[[120.9812310430001,14.640405712000074],[120.97980857300001,14.64045889700003],[120.97979416600002,14.639568177000054],[120.98061426800007,14.639027938000023],[120.98121555500008,14.639008265000026],[120.9812310430001,14.640405712000074]]]}},{"type":"Feature","properties":{"psgc_code":"1380100043","name":"Barangay 43"},"geometry":{"type":"Polygon","coordinates":[[[120.97911115700005,14.641864923000073],[120.97694427900002,14.641474650000076],[120.97699111300007,14.64121530000005],[120.97716841800003,14.63975062000003],[120.9778264780001,14.639987632000032],[120.97907677300009,14.640493579000065],[120.97911115700005,14.641864923000073]]]}},{"type":"Feature","properties":{"psgc_code":"1380100044","name":"Barangay 44"},"geometry":{"type":"Polygon","coordinates":[[[120.98126814000011,14.641794991000037],[120.97911115700005,14.641864923000073],[120.97907677300009,14.640493579000065],[120.97980857300001,14.64045889700003],[120.9812310430001,14.640405712000074],[120.98126814000011,14.641794991000037]]]}},{"type":"Feature","properties":{"psgc_code":"1380100045","name":"Barangay 45"},"geometry":{"type":"Polygon","coordinates":[[[120.98348996100003,14.64173125700006],[120.98126814000011,14.641794991000037],[120.9812310430001,14.640405712000074],[120.98344262400008,14.640341589000057],[120.98348996100003,14.64173125700006]]]}},{"type":"Feature","properties":{"psgc_code":"1380100046","name":"Barangay 46"},"geometry":{"type":"Polygon","coordinates":[[[120.97816697100006,14.643277812000061],[120.97658080400005,14.64334186000008],[120.97694427900002,14.641474650000076],[120.97911115700005,14.641864923000073],[120.97917307300008,14.64324985700005],[120.97816697100006,14.643277812000061]]]}},{"type":"Feature","properties":{"psgc_code":"1380100047","name":"Barangay 47"},"geometry":{"type":"Polygon","coordinates":[[[120.97989601400002,14.643226361000078],[120.97917307300008,14.64324985700005],[120.97911115700005,14.641864923000073],[120.98126814000011,14.641794991000037],[120.98133114400002,14.643185034000053],[120.97989601400002,14.643226361000078]]]}},{"type":"Feature","properties":{"psgc_code":"1380100048","name":"Barangay 48"},"geometry":{"type":"Polygon","coordinates":[[[120.98353159800003,14.643117441000072],[120.98133114400002,14.643185034000053],[120.98126814000011,14.641794991000037],[120.98348996100003,14.64173125700006],[120.98353159800003,14.643117441000072]]]}},{"type":"Feature","properties":{"psgc_code":"1380100049","name":"Barangay 49"},"geometry":{"type":"Polygon","coordinates":[[[120.97781452100004,14.64608637200007],[120.97611584000002,14.645591419000029],[120.97658080400005,14.64334186000008],[120.97816697100006,14.643277812000061],[120.97784312500005,14.644698190000046],[120.97781452100004,14.64608637200007]]]}},{"type":"Feature","properties":{"psgc_code":"1380100050","name":"Barangay 50"},"geometry":{"type":"Polygon","coordinates":[[[120.97919811000008,14.644652215000065],[120.97784312500005,14.644698190000046],[120.97816697100006,14.643277812000061],[120.97917307300008,14.64324985700005],[120.97989601400002,14.643226361000078],[120.97994309900001,14.644623255000052],[120.97919811000008,14.644652215000065]]]}},{"type":"Feature","properties":{"psgc_code":"1380100051","name":"Barangay 51"},"geometry":{"type":"Polygon","coordinates":[[[120.98358385200004,14.644352463000075],[120.97994309900001,14.644623255000052],[120.97989601400002,14.643226361000078],[120.98133114400002,14.643185034000053],[120.98353159800003,14.643117441000072],[120.98358385200004,14.644352463000075]]]}},{"type":"Feature","properties":{"psgc_code":"1380100052","name":"Barangay 52"},"geometry":{"type":"Polygon","coordinates":[[[120.97785988000011,14.647491187000071],[120.975758959,14.647428775000034],[120.97611584000002,14.645591419000029],[120.97781452100004,14.64608637200007],[120.97785988000011,14.647491187000071]]]}},{"type":"Feature","properties":{"psgc_code":"1380100053","name":"Barangay 53"},"geometry":{"type":"Polygon","coordinates":[[[120.97930352100002,14.64744658400002],[120.97785988000011,14.647491187000071],[120.97781452100004,14.64608637200007],[120.97784312500005,14.644698190000046],[120.97919811000008,14.644652215000065],[120.9792537840001,14.646037189000024],[120.97930352100002,14.64744658400002]]]}},{"type":"Feature","properties":{"psgc_code":"1380100054","name":"Barangay 54"},"geometry":{"type":"Polygon","coordinates":[[[120.98075087500003,14.647382989000048],[120.97930352100002,14.64744658400002],[120.9792537840001,14.646037189000024],[120.98361884300004,14.645720541000054],[120.98366955600011,14.64731450800002],[120.98075087500003,14.647382989000048]]]}},{"type":"Feature","properties":{"psgc_code":"1380100055","name":"Barangay 55"},"geometry":{"type":"Polygon","coordinates":[[[120.98361884300004,14.645720541000054],[120.9792537840001,14.646037189000024],[120.97919811000008,14.644652215000065],[120.97994309900001,14.644623255000052],[120.98358385200004,14.644352463000075],[120.98361884300004,14.645720541000054]]]}},{"type":"Feature","properties":{"psgc_code":"1380100056","name":"Barangay 56"},"geometry":{"type":"Polygon","coordinates":[[[120.97790771100004,14.648890371000043],[120.97546982400002,14.648865127000024],[120.97571263800013,14.647684281000064],[120.975758959,14.647428775000034],[120.97785988000011,14.647491187000071],[120.97790771100004,14.648890371000043]]]}},{"type":"Feature","properties":{"psgc_code":"1380100057","name":"Barangay 57"},"geometry":{"type":"Polygon","coordinates":[[[120.97935704400003,14.648850986000074],[120.97790771100004,14.648890371000043],[120.97785988000011,14.647491187000071],[120.97930352100002,14.64744658400002],[120.98075087500003,14.647382989000048],[120.98080715900004,14.648797026000064],[120.97935704400003,14.648850986000074]]]}},{"type":"Feature","properties":{"psgc_code":"1380100058","name":"Barangay 58"},"geometry":{"type":"Polygon","coordinates":[[[120.98371387800012,14.648719605000057],[120.98080715900004,14.648797026000064],[120.98075087500003,14.647382989000048],[120.98366955600011,14.64731450800002],[120.98371387800012,14.648719605000057]]]}},{"type":"Feature","properties":{"psgc_code":"1380100059","name":"Barangay 59"},"geometry":{"type":"Polygon","coordinates":[[[120.97794938000004,14.650291448000074],[120.97521937600004,14.650089325000069],[120.97546982400002,14.648865127000024],[120.97790771100004,14.648890371000043],[120.97794938000004,14.650291448000074]]]}},{"type":"Feature","properties":{"psgc_code":"1380100060","name":"Barangay 60"},"geometry":{"type":"Polygon","coordinates":[[[120.97945778300004,14.651646963000074],[120.97799886300004,14.651701438000032],[120.97794938000004,14.650291448000074],[120.97790771100004,14.648890371000043],[120.97935704400003,14.648850986000074],[120.97940391100008,14.650243703000058],[120.97945778300004,14.651646963000074]]]}},{"type":"Feature","properties":{"psgc_code":"1380100061","name":"Barangay 61"},"geometry":{"type":"Polygon","coordinates":[[[120.9837614610001,14.65010166800005],[120.97940391100008,14.650243703000058],[120.97935704400003,14.648850986000074],[120.98080715900004,14.648797026000064],[120.98371387800012,14.648719605000057],[120.9837614610001,14.65010166800005]]]}},{"type":"Feature","properties":{"psgc_code":"1380100062","name":"Barangay 62"},"geometry":{"type":"Polygon","coordinates":[[[120.9816120370001,14.651577219000048],[120.97945778300004,14.651646963000074],[120.97940391100008,14.650243703000058],[120.9837614610001,14.65010166800005],[120.9838079230001,14.651525523000025],[120.9816120370001,14.651577219000048]]]}},{"type":"Feature","properties":{"psgc_code":"1380100063","name":"Barangay 63"},"geometry":{"type":"Polygon","coordinates":[[[120.97738867100007,14.65172142500006],[120.97623033400008,14.651725548000059],[120.9749584000001,14.651329031000039],[120.97517212200012,14.650271070000027],[120.97521937600004,14.650089325000069],[120.97794938000004,14.650291448000074],[120.97799886300004,14.651701438000032],[120.97738867100007,14.65172142500006]]]}},{"type":"Feature","properties":{"psgc_code":"1380100064","name":"Barangay 64"},"geometry":{"type":"Polygon","coordinates":[[[120.97623033400008,14.651725548000059],[120.97592567400012,14.653294660000027],[120.97462417800013,14.653049331000032],[120.9749584000001,14.651329031000039],[120.97623033400008,14.651725548000059]]]}},{"type":"Feature","properties":{"psgc_code":"1380100065","name":"Barangay 65"},"geometry":{"type":"Polygon","coordinates":[[[120.97738867100007,14.65172142500006],[120.97703198600004,14.653477076000057],[120.97592567400012,14.653294660000027],[120.97623033400008,14.651725548000059],[120.97738867100007,14.65172142500006]]]}},{"type":"Feature","properties":{"psgc_code":"1380100066","name":"Barangay 66"},"geometry":{"type":"Polygon","coordinates":[[[120.97924463100003,14.652992052000055],[120.97703198600004,14.653477076000057],[120.97738867100007,14.65172142500006],[120.97799886300004,14.651701438000032],[120.97945778300004,14.651646963000074],[120.97924463100003,14.652992052000055]]]}},{"type":"Feature","properties":{"psgc_code":"1380100067","name":"Barangay 67"},"geometry":{"type":"Polygon","coordinates":[[[120.98190817000011,14.653544014000033],[120.97985214500012,14.653346236000061],[120.97924463100003,14.652992052000055],[120.97945778300004,14.651646963000074],[120.9816120370001,14.651577219000048],[120.98190817000011,14.653544014000033]]]}},{"type":"Feature","properties":{"psgc_code":"1380100068","name":"Barangay 68"},"geometry":{"type":"Polygon","coordinates":[[[120.98387159100002,14.65354950100004],[120.98389050200002,14.654005886000052],[120.98190817000011,14.653544014000033],[120.9816120370001,14.651577219000048],[120.9838079230001,14.651525523000025],[120.98385126500011,14.652923574000058],[120.98387159100002,14.65354950100004]]]}},{"type":"Feature","properties":{"psgc_code":"1380100069","name":"Barangay 69"},"geometry":{"type":"Polygon","coordinates":[[[120.97924463100003,14.652992052000055],[120.97844809700007,14.655474146000072],[120.97672035500011,14.65512209900004],[120.97703198600004,14.653477076000057],[120.97924463100003,14.652992052000055]]]}},{"type":"Feature","properties":{"psgc_code":"1380100070","name":"Barangay 70"},"geometry":{"type":"Polygon","coordinates":[[[120.98033374000012,14.654236696000051],[120.98003944600008,14.655812775000069],[120.97844809700007,14.655474146000072],[120.97924463100003,14.652992052000055],[120.97985214500012,14.653346236000061],[120.98033374000012,14.654236696000051]]]}},{"type":"Feature","properties":{"psgc_code":"1380100071","name":"Barangay 71"},"geometry":{"type":"Polygon","coordinates":[[[120.98389050200002,14.654005886000052],[120.98394077300009,14.655653153000062],[120.98089707100007,14.653900935000022],[120.98033374000012,14.654236696000051],[120.97985214500012,14.653346236000061],[120.98190817000011,14.653544014000033],[120.98389050200002,14.654005886000052]]]}},{"type":"Feature","properties":{"psgc_code":"1380100072","name":"Barangay 72"},"geometry":{"type":"Polygon","coordinates":[[[120.98226835800004,14.657103428000026],[120.98146084400004,14.657112356000026],[120.98089707100007,14.653900935000022],[120.98394077300009,14.655653153000062],[120.98394667400011,14.655932536000023],[120.98226835800004,14.657103428000026]]]}},{"type":"Feature","properties":{"psgc_code":"1380100073","name":"Barangay 73"},"geometry":{"type":"Polygon","coordinates":[[[120.9773223540001,14.657465065000054],[120.97384002000001,14.657502985000063],[120.97414732100005,14.655455364000032],[120.97462417800013,14.653049331000032],[120.97592567400012,14.653294660000027],[120.97703198600004,14.653477076000057],[120.97672035500011,14.65512209900004],[120.9773223540001,14.657465065000054]]]}},{"type":"Feature","properties":{"psgc_code":"1380100074","name":"Barangay 74"},"geometry":{"type":"Polygon","coordinates":[[[120.97952992600005,14.657184191000054],[120.9773223540001,14.657465065000054],[120.97672035500011,14.65512209900004],[120.97844809700007,14.655474146000072],[120.98003944600008,14.655812775000069],[120.98043027200005,14.657123630000063],[120.97952992600005,14.657184191000054]]]}},{"type":"Feature","properties":{"psgc_code":"1380100075","name":"Barangay 75"},"geometry":{"type":"Polygon","coordinates":[[[120.98146084400004,14.657112356000026],[120.98043027200005,14.657123630000063],[120.98003944600008,14.655812775000069],[120.98033374000012,14.654236696000051],[120.98089707100007,14.653900935000022],[120.98146084400004,14.657112356000026]]]}},{"type":"Feature","properties":{"psgc_code":"1380100076","name":"Barangay 76"},"geometry":{"type":"Polygon","coordinates":[[[120.98394801200004,14.655988710000033],[120.98398641100005,14.657114461000052],[120.98246581500007,14.657102198000077],[120.98226835800004,14.657103428000026],[120.98394667400011,14.655932536000023],[120.98394801200004,14.655988710000033]]]}},{"type":"Feature","properties":{"psgc_code":"1380100077","name":"Barangay 77"},"geometry":{"type":"Polygon","coordinates":[[[120.98250962000009,14.658738068000048],[120.97957724300012,14.65882153800004],[120.97952992600005,14.657184191000054],[120.98043027200005,14.657123630000063],[120.98146084400004,14.657112356000026],[120.98226835800004,14.657103428000026],[120.98246581500007,14.657102198000077],[120.98250962000009,14.658738068000048]]]}},{"type":"Feature","properties":{"psgc_code":"1380100078","name":"Barangay 78"},"geometry":{"type":"Polygon","coordinates":[[[120.98398641100005,14.657114461000052],[120.98410724300004,14.660914912000067],[120.98256190200004,14.660451592000074],[120.98250962000009,14.658738068000048],[120.98246581500007,14.657102198000077],[120.98398641100005,14.657114461000052]]]}},{"type":"Feature","properties":{"psgc_code":"1380100079","name":"Barangay 79"},"geometry":{"type":"Polygon","coordinates":[[[120.98256190200004,14.660451592000074],[120.9796643520001,14.66130183800004],[120.97957724300012,14.65882153800004],[120.98250962000009,14.658738068000048],[120.98256190200004,14.660451592000074]]]}},{"type":"Feature","properties":{"psgc_code":"1380100080","name":"Barangay 80"},"geometry":{"type":"Polygon","coordinates":[[[120.9796643520001,14.66130183800004],[120.97343876700006,14.661923152000037],[120.97358366100002,14.660443299000065],[120.97384002000001,14.657502985000063],[120.9773223540001,14.657465065000054],[120.97952992600005,14.657184191000054],[120.97957724300012,14.65882153800004],[120.9796643520001,14.66130183800004]]]}},{"type":"Feature","properties":{"psgc_code":"1380100081","name":"Barangay 81"},"geometry":{"type":"Polygon","coordinates":[[[120.98546329500005,14.657124692000025],[120.98538232200008,14.66143695800002],[120.98410724300004,14.660914912000067],[120.98398641100005,14.657114461000052],[120.98546329500005,14.657124692000025]]]}},{"type":"Feature","properties":{"psgc_code":"1380100082","name":"Barangay 82"},"geometry":{"type":"Polygon","coordinates":[[[120.99011847600002,14.661867643000047],[120.99006446200008,14.66451222300003],[120.98774908700011,14.662509128000066],[120.98907963200008,14.662098562000038],[120.98908928300013,14.66099055300003],[120.99012885800005,14.66100450700003],[120.99011847600002,14.661867643000047]]]}},{"type":"Feature","properties":{"psgc_code":"1380100083","name":"Barangay 83"},"geometry":{"type":"Polygon","coordinates":[[[120.98908928300013,14.66099055300003],[120.98907963200008,14.662098562000038],[120.98814255000002,14.657154547000065],[120.98823918100004,14.65715667200004],[120.98914169200009,14.657164653000052],[120.98908928300013,14.66099055300003]]]}},{"type":"Feature","properties":{"psgc_code":"1380100084","name":"Barangay 84"},"geometry":{"type":"Polygon","coordinates":[[[120.98907963200008,14.662098562000038],[120.98774908700011,14.662509128000066],[120.98538232200008,14.66143695800002],[120.98546329500005,14.657124692000025],[120.98814255000002,14.657154547000065],[120.98907963200008,14.662098562000038]]]}},{"type":"Feature","properties":{"psgc_code":"1380100085","name":"Barangay 85"},"geometry":{"type":"Polygon","coordinates":[[[120.99017671400009,14.657174889000029],[120.99012885800005,14.66100450700003],[120.98908928300013,14.66099055300003],[120.98914169200009,14.657164653000052],[120.99017671400009,14.657174889000029]]]}},{"type":"Feature","properties":{"psgc_code":"1380100086","name":"Barangay 86"},"geometry":{"type":"Polygon","coordinates":[[[120.98827763100007,14.655630981000057],[120.98823918100004,14.65715667200004],[120.98814255000002,14.657154547000065],[120.98546329500005,14.657124692000025],[120.98398641100005,14.657114461000052],[120.98394801200004,14.655988710000033],[120.98827763100007,14.655630981000057]]]}},{"type":"Feature","properties":{"psgc_code":"1380100087","name":"Barangay 87"},"geometry":{"type":"Polygon","coordinates":[[[120.99269048300006,14.655701502000058],[120.99266922900006,14.657217919000063],[120.99170652200007,14.657200086000044],[120.99017671400009,14.657174889000029],[120.98914169200009,14.657164653000052],[120.98823918100004,14.65715667200004],[120.98827763100007,14.655630981000057],[120.99045708600012,14.655664851000044],[120.9911865700001,14.655670976000067],[120.99269048300006,14.655701502000058]]]}},{"type":"Feature","properties":{"psgc_code":"1380100088","name":"Barangay 88"},"geometry":{"type":"Polygon","coordinates":[[[120.98827763100007,14.655630981000057],[120.98394801200004,14.655988710000033],[120.98394667400011,14.655932536000023],[120.98394077300009,14.655653153000062],[120.98389050200002,14.654005886000052],[120.98387159100002,14.65354950100004],[120.98827461500002,14.654647631000048],[120.98827763100007,14.655630981000057]]]}},{"type":"Feature","properties":{"psgc_code":"1380100089","name":"Barangay 89"},"geometry":{"type":"Polygon","coordinates":[[[120.99037372100007,14.652714930000055],[120.99045708600012,14.655664851000044],[120.98827763100007,14.655630981000057],[120.98827461500002,14.654647631000048],[120.98824569200009,14.65278537100005],[120.98894486300003,14.652767597000034],[120.99037372100007,14.652714930000055]]]}},{"type":"Feature","properties":{"psgc_code":"1380100090","name":"Barangay 90"},"geometry":{"type":"Polygon","coordinates":[[[120.98824569200009,14.65278537100005],[120.98827461500002,14.654647631000048],[120.98387159100002,14.65354950100004],[120.98385126500011,14.652923574000058],[120.98824569200009,14.65278537100005]]]}},{"type":"Feature","properties":{"psgc_code":"1380100091","name":"Barangay 91"},"geometry":{"type":"Polygon","coordinates":[[[120.98824569200009,14.65278537100005],[120.98385126500011,14.652923574000058],[120.9838079230001,14.651525523000025],[120.98530396800004,14.651464841000063],[120.98674593800001,14.651419907000045],[120.988179349,14.651373649000046],[120.98892014300009,14.651352886000035],[120.98894486300003,14.652767597000034],[120.98824569200009,14.65278537100005]]]}},{"type":"Feature","properties":{"psgc_code":"1380100092","name":"Barangay 92"},"geometry":{"type":"Polygon","coordinates":[[[120.99257532000001,14.654044564000062],[120.9911865700001,14.655670976000067],[120.99045708600012,14.655664851000044],[120.99037372100007,14.652714930000055],[120.99251789200002,14.652649931000038],[120.99257532000001,14.654044564000062]]]}},{"type":"Feature","properties":{"psgc_code":"1380100093","name":"Barangay 93"},"geometry":{"type":"Polygon","coordinates":[[[120.99037372100007,14.652714930000055],[120.98894486300003,14.652767597000034],[120.98892014300009,14.651352886000035],[120.98961025700011,14.651336523000051],[120.99105085400004,14.651278056000024],[120.99247822000007,14.651239769000025],[120.99251789200002,14.652649931000038],[120.99037372100007,14.652714930000055]]]}},{"type":"Feature","properties":{"psgc_code":"1380100094","name":"Barangay 94"},"geometry":{"type":"Polygon","coordinates":[[[120.99539257200001,14.655730054000061],[120.99441296600003,14.657246741000053],[120.99325701600003,14.657226644000048],[120.99266922900006,14.657217919000063],[120.99269048300006,14.655701502000058],[120.99539257200001,14.655730054000061]]]}},{"type":"Feature","properties":{"psgc_code":"1380100095","name":"Barangay 95"},"geometry":{"type":"Polygon","coordinates":[[[120.99882198000012,14.655787306000033],[120.99897709700008,14.65731784700006],[120.99784244800003,14.657301514000038],[120.99631636100003,14.657275230000042],[120.99441296600003,14.657246741000053],[120.99539257200001,14.655730054000061],[120.99534919900009,14.655427170000054],[120.9964118910001,14.655252414000076],[120.99882198000012,14.655787306000033]]]}},{"type":"Feature","properties":{"psgc_code":"1380100096","name":"Barangay 96"},"geometry":{"type":"Polygon","coordinates":[[[120.99534919900009,14.655427170000054],[120.99539257200001,14.655730054000061],[120.99269048300006,14.655701502000058],[120.9911865700001,14.655670976000067],[120.99257532000001,14.654044564000062],[120.99345153400009,14.653295452000062],[120.994456323,14.653086040000064],[120.99534919900009,14.655427170000054]]]}},{"type":"Feature","properties":{"psgc_code":"1380100097","name":"Barangay 97"},"geometry":{"type":"Polygon","coordinates":[[[120.99345153400009,14.653295452000062],[120.99257532000001,14.654044564000062],[120.99251789200002,14.652649931000038],[120.99247822000007,14.651239769000025],[120.99395929,14.651199368000052],[120.99345153400009,14.653295452000062]]]}},{"type":"Feature","properties":{"psgc_code":"1380100098","name":"Barangay 98"},"geometry":{"type":"Polygon","coordinates":[[[120.994456323,14.653086040000064],[120.99345153400009,14.653295452000062],[120.99395929,14.651199368000052],[120.9952396860001,14.652675467000048],[120.994456323,14.653086040000064]]]}},{"type":"Feature","properties":{"psgc_code":"1380100099","name":"Barangay 99"},"geometry":{"type":"Polygon","coordinates":[[[120.99882198000012,14.655787306000033],[120.9964118910001,14.655252414000076],[120.99661483500006,14.653201599000052],[120.99882198000012,14.655787306000033]]]}},{"type":"Feature","properties":{"psgc_code":"1380100100","name":"Barangay 100"},"geometry":{"type":"Polygon","coordinates":[[[120.9964118910001,14.655252414000076],[120.99534919900009,14.655427170000054],[120.994456323,14.653086040000064],[120.9952396860001,14.652675467000048],[120.996312267,14.652307197000027],[120.99661483500006,14.653201599000052],[120.9964118910001,14.655252414000076]]]}},{"type":"Feature","properties":{"psgc_code":"1380100101","name":"Barangay 101"},"geometry":{"type":"Polygon","coordinates":[[[120.996312267,14.652307197000027],[120.9952396860001,14.652675467000048],[120.99395929,14.651199368000052],[120.99247822000007,14.651239769000025],[120.99105085400004,14.651278056000024],[120.99094120600012,14.648480003000035],[120.99222663200011,14.648635547000028],[120.995847894,14.650581798000077],[120.996312267,14.652307197000027]]]}},{"type":"Feature","properties":{"psgc_code":"1380100102","name":"Barangay 102"},"geometry":{"type":"Polygon","coordinates":[[[120.995847894,14.650581798000077],[120.99222663200011,14.648635547000028],[120.99574596800007,14.649783812000065],[120.995847894,14.650581798000077]]]}},{"type":"Feature","properties":{"psgc_code":"1380100103","name":"Barangay 103"},"geometry":{"type":"Polygon","coordinates":[[[120.99105085400004,14.651278056000024],[120.98961025700011,14.651336523000051],[120.98946185300007,14.647105284000075],[120.99090003000003,14.647074332000038],[120.99094120600012,14.648480003000035],[120.99105085400004,14.651278056000024]]]}},{"type":"Feature","properties":{"psgc_code":"1380100104","name":"Barangay 104"},"geometry":{"type":"Polygon","coordinates":[[[120.98892014300009,14.651352886000035],[120.988179349,14.651373649000046],[120.98808242300004,14.648571654000023],[120.98803636400011,14.647174173000055],[120.98946185300007,14.647105284000075],[120.98961025700011,14.651336523000051],[120.98892014300009,14.651352886000035]]]}},{"type":"Feature","properties":{"psgc_code":"1380100105","name":"Barangay 105"},"geometry":{"type":"Polygon","coordinates":[[[120.9939107560001,14.646867312000037],[120.99574596800007,14.649783812000065],[120.99222663200011,14.648635547000028],[120.99094120600012,14.648480003000035],[120.99090003000003,14.647074332000038],[120.9939107560001,14.646867312000037]]]}},{"type":"Feature","properties":{"psgc_code":"1380100106","name":"Barangay 106"},"geometry":{"type":"Polygon","coordinates":[[[120.98530396800004,14.651464841000063],[120.9838079230001,14.651525523000025],[120.9837614610001,14.65010166800005],[120.98371387800012,14.648719605000057],[120.98521211000002,14.648669646000034],[120.98530396800004,14.651464841000063]]]}},{"type":"Feature","properties":{"psgc_code":"1380100107","name":"Barangay 107"},"geometry":{"type":"Polygon","coordinates":[[[120.98674593800001,14.651419907000045],[120.98530396800004,14.651464841000063],[120.98521211000002,14.648669646000034],[120.98664360000011,14.648630824000065],[120.98674593800001,14.651419907000045]]]}},{"type":"Feature","properties":{"psgc_code":"1380100108","name":"Barangay 108"},"geometry":{"type":"Polygon","coordinates":[[[120.988179349,14.651373649000046],[120.98674593800001,14.651419907000045],[120.98664360000011,14.648630824000065],[120.98808242300004,14.648571654000023],[120.988179349,14.651373649000046]]]}},{"type":"Feature","properties":{"psgc_code":"1380100109","name":"Barangay 109"},"geometry":{"type":"Polygon","coordinates":[[[120.98521211000002,14.648669646000034],[120.98371387800012,14.648719605000057],[120.98366955600011,14.64731450800002],[120.98516316100007,14.647272503000064],[120.98659225100005,14.647233004000043],[120.98803636400011,14.647174173000055],[120.98808242300004,14.648571654000023],[120.98664360000011,14.648630824000065],[120.98521211000002,14.648669646000034]]]}},{"type":"Feature","properties":{"psgc_code":"1380100110","name":"Barangay 110"},"geometry":{"type":"Polygon","coordinates":[[[120.98516316100007,14.647272503000064],[120.98366955600011,14.64731450800002],[120.98361884300004,14.645720541000054],[120.98511789000007,14.645848442000048],[120.98516316100007,14.647272503000064]]]}},{"type":"Feature","properties":{"psgc_code":"1380100111","name":"Barangay 111"},"geometry":{"type":"Polygon","coordinates":[[[120.98659225100005,14.647233004000043],[120.98516316100007,14.647272503000064],[120.98511789000007,14.645848442000048],[120.98582419900004,14.645831298000068],[120.98654391700008,14.645799192000025],[120.98659225100005,14.647233004000043]]]}},{"type":"Feature","properties":{"psgc_code":"1380100112","name":"Barangay 112"},"geometry":{"type":"Polygon","coordinates":[[[120.98803636400011,14.647174173000055],[120.98659225100005,14.647233004000043],[120.98654391700008,14.645799192000025],[120.98799650800005,14.645753610000039],[120.98803636400011,14.647174173000055]]]}},{"type":"Feature","properties":{"psgc_code":"1380100113","name":"Barangay 113"},"geometry":{"type":"Polygon","coordinates":[[[120.98511789000007,14.645848442000048],[120.98361884300004,14.645720541000054],[120.98358385200004,14.644352463000075],[120.98506525200004,14.644372911000069],[120.98511789000007,14.645848442000048]]]}},{"type":"Feature","properties":{"psgc_code":"1380100114","name":"Barangay 114"},"geometry":{"type":"Polygon","coordinates":[[[120.98582419900004,14.645831298000068],[120.98511789000007,14.645848442000048],[120.98506525200004,14.644372911000069],[120.98578299100006,14.644348209000047],[120.98582419900004,14.645831298000068]]]}},{"type":"Feature","properties":{"psgc_code":"1380100115","name":"Barangay 115"},"geometry":{"type":"Polygon","coordinates":[[[120.98654391700008,14.645799192000025],[120.98582419900004,14.645831298000068],[120.98578299100006,14.644348209000047],[120.98650603000009,14.644325558000045],[120.98654391700008,14.645799192000025]]]}},{"type":"Feature","properties":{"psgc_code":"1380100116","name":"Barangay 116"},"geometry":{"type":"Polygon","coordinates":[[[120.98799650800005,14.645753610000039],[120.98654391700008,14.645799192000025],[120.98650603000009,14.644325558000045],[120.98793874700006,14.64425385600003],[120.98799650800005,14.645753610000039]]]}},{"type":"Feature","properties":{"psgc_code":"1380100117","name":"Barangay 117"},"geometry":{"type":"Polygon","coordinates":[[[120.98578299100006,14.644348209000047],[120.98506525200004,14.644372911000069],[120.98358385200004,14.644352463000075],[120.98353159800003,14.643117441000072],[120.98539386000003,14.643058663000033],[120.98574207100012,14.643051795000073],[120.98578299100006,14.644348209000047]]]}},{"type":"Feature","properties":{"psgc_code":"1380100118","name":"Barangay 118"},"geometry":{"type":"Polygon","coordinates":[[[120.98650603000009,14.644325558000045],[120.98578299100006,14.644348209000047],[120.98574207100012,14.643051795000073],[120.98568229900003,14.639655100000025],[120.98886937800013,14.639798129000043],[120.98922830000002,14.640857763000044],[120.9899686020001,14.642651296000054],[120.99061710900003,14.644016430000018],[120.989376707,14.644193481000057],[120.98793874700006,14.64425385600003],[120.98650603000009,14.644325558000045]]]}},{"type":"Feature","properties":{"psgc_code":"1380100119","name":"Barangay 119"},"geometry":{"type":"Polygon","coordinates":[[[120.98539386000003,14.643058663000033],[120.98353159800003,14.643117441000072],[120.98348996100003,14.64173125700006],[120.98539386000003,14.643058663000033]]]}},{"type":"Feature","properties":{"psgc_code":"1380100120","name":"Barangay 120"},"geometry":{"type":"Polygon","coordinates":[[[120.98574207100012,14.643051795000073],[120.98539386000003,14.643058663000033],[120.98348996100003,14.64173125700006],[120.98344262400008,14.640341589000057],[120.98339907700007,14.638941323000038],[120.98325627300004,14.638094958000064],[120.98257059000004,14.636542622000036],[120.98568229900003,14.639655100000025],[120.98574207100012,14.643051795000073]]]}},{"type":"Feature","properties":{"psgc_code":"1380100121","name":"Barangay 121"},"geometry":{"type":"Polygon","coordinates":[[[120.98946185300007,14.647105284000075],[120.98803636400011,14.647174173000055],[120.98799650800005,14.645753610000039],[120.98942262000004,14.645711278000022],[120.99084443800007,14.645670764000046],[120.99090003000003,14.647074332000038],[120.98946185300007,14.647105284000075]]]}},{"type":"Feature","properties":{"psgc_code":"1380100122","name":"Barangay 122"},"geometry":{"type":"Polygon","coordinates":[[[120.9939107560001,14.646867312000037],[120.99090003000003,14.647074332000038],[120.99084443800007,14.645670764000046],[120.99313319400005,14.644955511000035],[120.9939107560001,14.646867312000037]]]}},{"type":"Feature","properties":{"psgc_code":"1380100123","name":"Barangay 123"},"geometry":{"type":"Polygon","coordinates":[[[120.98942262000004,14.645711278000022],[120.98799650800005,14.645753610000039],[120.98793874700006,14.64425385600003],[120.989376707,14.644193481000057],[120.98942262000004,14.645711278000022]]]}},{"type":"Feature","properties":{"psgc_code":"1380100124","name":"Barangay 124"},"geometry":{"type":"Polygon","coordinates":[[[120.99084443800007,14.645670764000046],[120.98942262000004,14.645711278000022],[120.989376707,14.644193481000057],[120.99061710900003,14.644016430000018],[120.99079126000004,14.643957155000066],[120.99084443800007,14.645670764000046]]]}},{"type":"Feature","properties":{"psgc_code":"1380100125","name":"Barangay 125"},"geometry":{"type":"Polygon","coordinates":[[[120.99313319400005,14.644955511000035],[120.99084443800007,14.645670764000046],[120.99079126000004,14.643957155000066],[120.99245666500009,14.643736801000045],[120.99313319400005,14.644955511000035]]]}},{"type":"Feature","properties":{"psgc_code":"1380100126","name":"Barangay 126"},"geometry":{"type":"Polygon","coordinates":[[[120.99079126000004,14.643957155000066],[120.99061710900003,14.644016430000018],[120.9899686020001,14.642651296000054],[120.99213030700002,14.64193057400007],[120.99245666500009,14.643736801000045],[120.99079126000004,14.643957155000066]]]}},{"type":"Feature","properties":{"psgc_code":"1380100127","name":"Barangay 127"},"geometry":{"type":"Polygon","coordinates":[[[120.99213030700002,14.64193057400007],[120.9899686020001,14.642651296000054],[120.98922830000002,14.640857763000044],[120.99137055800009,14.640175491000035],[120.99213030700002,14.64193057400007]]]}},{"type":"Feature","properties":{"psgc_code":"1380100128","name":"Barangay 128"},"geometry":{"type":"Polygon","coordinates":[[[120.99137055800009,14.640175491000035],[120.98922830000002,14.640857763000044],[120.98886937800013,14.639798129000043],[120.98878580600002,14.639516744000051],[120.99092895000001,14.638835311000038],[120.9920483620001,14.638522154000041],[120.99137055800009,14.640175491000035]]]}},{"type":"Feature","properties":{"psgc_code":"1380100129","name":"Barangay 129"},"geometry":{"type":"Polygon","coordinates":[[[120.99092895000001,14.638835311000038],[120.98878580600002,14.639516744000051],[120.98851925100007,14.638595058000023],[120.99063201,14.637942783000026],[120.99092895000001,14.638835311000038]]]}},{"type":"Feature","properties":{"psgc_code":"1380100130","name":"Barangay 130"},"geometry":{"type":"Polygon","coordinates":[[[120.99063201,14.637942783000026],[120.98851925100007,14.638595058000023],[120.9903484260001,14.637042884000037],[120.99063201,14.637942783000026]]]}},{"type":"Feature","properties":{"psgc_code":"1380100131","name":"Barangay 131"},"geometry":{"type":"Polygon","coordinates":[[[120.9920483620001,14.638522154000041],[120.99092895000001,14.638835311000038],[120.99063201,14.637942783000026],[120.9903484260001,14.637042884000037],[120.9920483620001,14.638522154000041]]]}},{"type":"Feature","properties":{"psgc_code":"1380100132","name":"Barangay 132"},"geometry":{"type":"Polygon","coordinates":[[[120.99163682600012,14.66365216900005],[120.9914759620001,14.664735142000042],[120.99006446200008,14.66451222300003],[120.99011847600002,14.661867643000047],[120.99163995600009,14.661896199000068],[120.99163682600012,14.66365216900005]]]}},{"type":"Feature","properties":{"psgc_code":"1380100133","name":"Barangay 133"},"geometry":{"type":"Polygon","coordinates":[[[120.99361610000005,14.662283534000041],[120.99238163000008,14.664008911000053],[120.99163682600012,14.66365216900005],[120.99163995600009,14.661896199000068],[120.99314313700008,14.661913421000067],[120.99361610000005,14.662283534000041]]]}},{"type":"Feature","properties":{"psgc_code":"1380100134","name":"Barangay 134"},"geometry":{"type":"Polygon","coordinates":[[[120.99170652200007,14.657200086000044],[120.99163995600009,14.661896199000068],[120.99011847600002,14.661867643000047],[120.99012885800005,14.66100450700003],[120.99017671400009,14.657174889000029],[120.99170652200007,14.657200086000044]]]}},{"type":"Feature","properties":{"psgc_code":"1380100135","name":"Barangay 135"},"geometry":{"type":"Polygon","coordinates":[[[120.99321182200003,14.65959303400007],[120.99314313700008,14.661913421000067],[120.99163995600009,14.661896199000068],[120.99170652200007,14.657200086000044],[120.99266922900006,14.657217919000063],[120.99325701600003,14.657226644000048],[120.99321182200003,14.65959303400007]]]}},{"type":"Feature","properties":{"psgc_code":"1380100136","name":"Barangay 136"},"geometry":{"type":"Polygon","coordinates":[[[120.99631636100003,14.657275230000042],[120.99628617100005,14.659634548000048],[120.99321182200003,14.65959303400007],[120.99325701600003,14.657226644000048],[120.99441296600003,14.657246741000053],[120.99631636100003,14.657275230000042]]]}},{"type":"Feature","properties":{"psgc_code":"1380100137","name":"Barangay 137"},"geometry":{"type":"Polygon","coordinates":[[[120.99624964800012,14.66193807700006],[120.99590626100009,14.661939217000054],[120.99314313700008,14.661913421000067],[120.99321182200003,14.65959303400007],[120.99628617100005,14.659634548000048],[120.99624964800012,14.66193807700006]]]}},{"type":"Feature","properties":{"psgc_code":"1380100138","name":"Barangay 138"},"geometry":{"type":"Polygon","coordinates":[[[120.99784244800003,14.657301514000038],[120.99777807700004,14.661957084000049],[120.99624964800012,14.66193807700006],[120.99628617100005,14.659634548000048],[120.99631636100003,14.657275230000042],[120.99784244800003,14.657301514000038]]]}},{"type":"Feature","properties":{"psgc_code":"1380100139","name":"Barangay 139"},"geometry":{"type":"Polygon","coordinates":[[[120.999650642,14.661836039000034],[120.99777807700004,14.661957084000049],[120.99784244800003,14.657301514000038],[120.99897709700008,14.65731784700006],[120.999650642,14.661836039000034]]]}},{"type":"Feature","properties":{"psgc_code":"1380100140","name":"Barangay 140"},"geometry":{"type":"Polygon","coordinates":[[[120.99717806300009,14.663077687000055],[120.99616021300005,14.664295353000057],[120.99557540200009,14.663827402000038],[120.99443795200011,14.662931215000071],[120.99361610000005,14.662283534000041],[120.99314313700008,14.661913421000067],[120.99590626100009,14.661939217000054],[120.99717806300009,14.663077687000055]]]}},{"type":"Feature","properties":{"psgc_code":"1380100141","name":"Barangay 141"},"geometry":{"type":"Polygon","coordinates":[[[121.00030215800007,14.662912550000044],[120.99883068200006,14.664351484000063],[120.99717806300009,14.663077687000055],[120.99590626100009,14.661939217000054],[120.99624964800012,14.66193807700006],[120.99777807700004,14.661957084000049],[120.999650642,14.661836039000034],[121.00030215800007,14.662912550000044]]]}},{"type":"Feature","properties":{"psgc_code":"1380100142","name":"Barangay 142"},"geometry":{"type":"Polygon","coordinates":[[[120.99385673500002,14.66467756200006],[120.9928176290001,14.665741461000039],[120.9914759620001,14.664735142000042],[120.99163682600012,14.66365216900005],[120.99238163000008,14.664008911000053],[120.99325071000008,14.664453102000039],[120.99385673500002,14.66467756200006]]]}},{"type":"Feature","properties":{"psgc_code":"1380100143","name":"Barangay 143"},"geometry":{"type":"Polygon","coordinates":[[[120.99443795200011,14.662931215000071],[120.99325071000008,14.664453102000039],[120.99238163000008,14.664008911000053],[120.99361610000005,14.662283534000041],[120.99443795200011,14.662931215000071]]]}},{"type":"Feature","properties":{"psgc_code":"1380100144","name":"Barangay 144"},"geometry":{"type":"Polygon","coordinates":[[[120.99557540200009,14.663827402000038],[120.99451245700004,14.665096263000065],[120.99385673500002,14.66467756200006],[120.99325071000008,14.664453102000039],[120.99443795200011,14.662931215000071],[120.99557540200009,14.663827402000038]]]}},{"type":"Feature","properties":{"psgc_code":"1380100145","name":"Barangay 145"},"geometry":{"type":"Polygon","coordinates":[[[120.99508729500008,14.665600218000062],[120.99400855200008,14.66685912700006],[120.9928176290001,14.665741461000039],[120.99385673500002,14.66467756200006],[120.99451245700004,14.665096263000065],[120.99508729500008,14.665600218000062]]]}},{"type":"Feature","properties":{"psgc_code":"1380100146","name":"Barangay 146"},"geometry":{"type":"Polygon","coordinates":[[[120.99720176200005,14.665099875000065],[120.99670861800008,14.665688703000054],[120.99508729500008,14.665600218000062],[120.99451245700004,14.665096263000065],[120.99557540200009,14.663827402000038],[120.99616021300005,14.664295353000057],[120.99720176200005,14.665099875000065]]]}},{"type":"Feature","properties":{"psgc_code":"1380100147","name":"Barangay 147"},"geometry":{"type":"Polygon","coordinates":[[[120.99883068200006,14.664351484000063],[120.9978322500001,14.665586690000053],[120.99720176200005,14.665099875000065],[120.99616021300005,14.664295353000057],[120.99717806300009,14.663077687000055],[120.99883068200006,14.664351484000063]]]}},{"type":"Feature","properties":{"psgc_code":"1380100148","name":"Barangay 148"},"geometry":{"type":"Polygon","coordinates":[[[120.9959631490001,14.666584226000053],[120.99435386200003,14.667176576000031],[120.99400855200008,14.66685912700006],[120.99508729500008,14.665600218000062],[120.99670861800008,14.665688703000054],[120.9959631490001,14.666584226000053]]]}},{"type":"Feature","properties":{"psgc_code":"1380100149","name":"Barangay 149"},"geometry":{"type":"Polygon","coordinates":[[[120.99727865400006,14.667645241000058],[120.99653356600005,14.668613739000023],[120.99435386200003,14.667176576000031],[120.9959631490001,14.666584226000053],[120.99727865400006,14.667645241000058]]]}},{"type":"Feature","properties":{"psgc_code":"1380100150","name":"Barangay 150"},"geometry":{"type":"Polygon","coordinates":[[[120.99756054800002,14.66731705300003],[120.99727865400006,14.667645241000058],[120.9959631490001,14.666584226000053],[120.99670861800008,14.665688703000054],[120.99720176200005,14.665099875000065],[120.9978322500001,14.665586690000053],[120.99851686800002,14.66612874900005],[120.99854172100002,14.66614953000004],[120.99756054800002,14.66731705300003]]]}},{"type":"Feature","properties":{"psgc_code":"1380100151","name":"Barangay 151"},"geometry":{"type":"Polygon","coordinates":[[[121.00032155400004,14.664910325000047],[120.99851686800002,14.66612874900005],[120.9978322500001,14.665586690000053],[120.99883068200006,14.664351484000063],[121.00030215800007,14.662912550000044],[121.00032029300007,14.664603180000027],[121.00032155400004,14.664910325000047]]]}},{"type":"Feature","properties":{"psgc_code":"1380100152","name":"Barangay 152"},"geometry":{"type":"Polygon","coordinates":[[[120.99898812100002,14.668228425000052],[120.99834127800011,14.66914584600005],[120.99653356600005,14.668613739000023],[120.99727865400006,14.667645241000058],[120.99756054800002,14.66731705300003],[120.99898812100002,14.668228425000052]]]}},{"type":"Feature","properties":{"psgc_code":"1380100153","name":"Barangay 153"},"geometry":{"type":"Polygon","coordinates":[[[120.99986992700009,14.667215765000039],[120.99898812100002,14.668228425000052],[120.99756054800002,14.66731705300003],[120.99854172100002,14.66614953000004],[120.99986992700009,14.667215765000039]]]}},{"type":"Feature","properties":{"psgc_code":"1380100154","name":"Barangay 154"},"geometry":{"type":"Polygon","coordinates":[[[121.00032155400004,14.664910325000047],[121.000364772,14.667569585000024],[120.99986992700009,14.667215765000039],[120.99854172100002,14.66614953000004],[120.99851686800002,14.66612874900005],[121.00032155400004,14.664910325000047]]]}},{"type":"Feature","properties":{"psgc_code":"1380100155","name":"Barangay 155"},"geometry":{"type":"Polygon","coordinates":[[[121.00039724400007,14.669434518000056],[120.99834127800011,14.66914584600005],[120.99898812100002,14.668228425000052],[120.99986992700009,14.667215765000039],[121.000364772,14.667569585000024],[121.00036810400003,14.667722726000024],[121.00039725200008,14.669406223000065],[121.00039724400007,14.669434518000056]]]}},{"type":"Feature","properties":{"psgc_code":"1380100156","name":"Barangay 156"},"geometry":{"type":"Polygon","coordinates":[[[121.00218350200008,14.667694279000045],[121.00036810400003,14.667722726000024],[121.000364772,14.667569585000024],[121.00032155400004,14.664910325000047],[121.00032029300007,14.664603180000027],[121.00250628700006,14.666722381000056],[121.00218350200008,14.667694279000045]]]}},{"type":"Feature","properties":{"psgc_code":"1380100157","name":"Barangay 157"},"geometry":{"type":"Polygon","coordinates":[[[121.00218350200008,14.667694279000045],[121.00039725200008,14.669406223000065],[121.00036810400003,14.667722726000024],[121.00218350200008,14.667694279000045]]]}},{"type":"Feature","properties":{"psgc_code":"1380100158","name":"Barangay 158"},"geometry":{"type":"Polygon","coordinates":[[[121.00488031600003,14.674484294000028],[121.00042241300004,14.670546765000038],[121.00039724400007,14.669434518000056],[121.00039725200008,14.669406223000065],[121.00218350200008,14.667694279000045],[121.00250628700006,14.666722381000056],[121.00661504400013,14.673018934000025],[121.00488031600003,14.674484294000028]]]}},{"type":"Feature","properties":{"psgc_code":"1380100159","name":"Barangay 159"},"geometry":{"type":"Polygon","coordinates":[[[121.00887049500012,14.67425060000005],[121.0045521080001,14.676077017000068],[121.00488031600003,14.674484294000028],[121.00661504400013,14.673018934000025],[121.00887049500012,14.67425060000005]]]}},{"type":"Feature","properties":{"psgc_code":"1380100160","name":"Barangay 160"},"geometry":{"type":"Polygon","coordinates":[[[121.0065364740001,14.678285490000064],[121.00335761900011,14.680007029000025],[121.00124584000002,14.685021789000075],[120.99866399600012,14.681157511000038],[121.0045521080001,14.676077017000068],[121.00887049500012,14.67425060000005],[121.00995148100003,14.674866849000065],[121.0065364740001,14.678285490000064]]]}},{"type":"Feature","properties":{"psgc_code":"1380100161","name":"Barangay 161"},"geometry":{"type":"Polygon","coordinates":[[[121.0045521080001,14.676077017000068],[120.99866399600012,14.681157511000038],[120.99682025300002,14.673313207000037],[121.00042241300004,14.670546765000038],[121.00488031600003,14.674484294000028],[121.0045521080001,14.676077017000068]]]}},{"type":"Feature","properties":{"psgc_code":"1380100162","name":"Barangay 162"},"geometry":{"type":"Polygon","coordinates":[[[121.01063368900009,14.682845892000042],[121.0063778980001,14.686354851000031],[121.00124584000002,14.685021789000075],[121.00335761900011,14.680007029000025],[121.0065364740001,14.678285490000064],[121.01063368900009,14.682845892000042]]]}},{"type":"Feature","properties":{"psgc_code":"1380100163","name":"Barangay 163"},"geometry":{"type":"Polygon","coordinates":[[[121.01869196500003,14.685138639000051],[121.01372096800004,14.685534774000077],[121.01063368900009,14.682845892000042],[121.0065364740001,14.678285490000064],[121.00995148100003,14.674866849000065],[121.01869196500003,14.685138639000051]]]}},{"type":"Feature","properties":{"psgc_code":"1380100164","name":"Barangay 164"},"geometry":{"type":"Polygon","coordinates":[[[121.01869196500003,14.685138639000051],[121.02265398600002,14.687140174000033],[121.02256949900003,14.69044917300005],[121.0152977680001,14.692058589000059],[121.01308364300007,14.690015489000073],[121.01372096800004,14.685534774000077],[121.01869196500003,14.685138639000051]]]}},{"type":"Feature","properties":{"psgc_code":"1380100165","name":"Barangay 165"},"geometry":{"type":"Polygon","coordinates":[[[121.00368672400009,14.727891155000068],[121.00075570100012,14.720445112000048],[121.00024551500007,14.714251076000037],[121.00964284100007,14.710948394000072],[121.00566502100003,14.72691572700006],[121.00368672400009,14.727891155000068]]]}},{"type":"Feature","properties":{"psgc_code":"1380100166","name":"Barangay 166"},"geometry":{"type":"Polygon","coordinates":[[[121.0202148840001,14.724787652000028],[121.01888339800007,14.727678032000028],[121.00991489700004,14.724473631000023],[121.00566502100003,14.72691572700006],[121.00964284100007,14.710948394000072],[121.01414158700004,14.711130226000023],[121.01443080000003,14.719158309000022],[121.01769830200008,14.71948370900003],[121.0202148840001,14.724787652000028]]]}},{"type":"Feature","properties":{"psgc_code":"1380100167","name":"Barangay 167"},"geometry":{"type":"Polygon","coordinates":[[[121.02122345300008,14.736163289000046],[121.01363375400003,14.735725349000061],[121.00704788100006,14.745780776000055],[121.00380235700004,14.73491613800007],[121.00368672400009,14.727891155000068],[121.00566502100003,14.72691572700006],[121.00991489700004,14.724473631000023],[121.01888339800007,14.727678032000028],[121.0202148840001,14.724787652000028],[121.02558428100006,14.725623835000023],[121.02732162700012,14.730574770000032],[121.02730909000003,14.731214769000081],[121.02197950100002,14.729343053000035],[121.01931325000011,14.732419008000019],[121.02122345300008,14.736163289000046]]]}},{"type":"Feature","properties":{"psgc_code":"1380100168","name":"Barangay 168"},"geometry":{"type":"Polygon","coordinates":[[[121.03473352300013,14.744799550000039],[121.0282412360001,14.745296107000055],[121.02215176700008,14.742056176000064],[121.00677087200006,14.745995157000044],[121.00704788100006,14.745780776000055],[121.01363375400003,14.735725349000061],[121.02122345300008,14.736163289000046],[121.02724989300008,14.734050415000072],[121.03006788100005,14.735448206000058],[121.03476285500004,14.744312420000027],[121.03473352300013,14.744799550000039]]]}},{"type":"Feature","properties":{"psgc_code":"1380100169","name":"Barangay 169"},"geometry":{"type":"Polygon","coordinates":[[[121.02724989300008,14.734050415000072],[121.02122345300008,14.736163289000046],[121.01931325000011,14.732419008000019],[121.02197950100002,14.729343053000035],[121.02730909000003,14.731214769000081],[121.02724989300008,14.734050415000072]]]}},{"type":"Feature","properties":{"psgc_code":"1380100170","name":"Barangay 170"},"geometry":{"type":"Polygon","coordinates":[[[121.03867860700008,14.740320998000072],[121.03476285500004,14.744312420000027],[121.03006788100005,14.735448206000058],[121.02724989300008,14.734050415000072],[121.02730909000003,14.731214769000081],[121.02732162700012,14.730574770000032],[121.03397876600002,14.735899964000055],[121.03789804500002,14.736018305000071],[121.03867860700008,14.740320998000072]]]}},{"type":"Feature","properties":{"psgc_code":"1380100171","name":"Barangay 171"},"geometry":{"type":"Polygon","coordinates":[[[121.03011988900006,14.776134367000054],[121.02581714200007,14.776249918000074],[121.0266373400001,14.771406580000077],[121.02402399100004,14.763034879000028],[121.00890606500003,14.756751727000054],[121.00833460600008,14.754411855000063],[121.00086528200005,14.753523324000069],[121.00290955100002,14.748822999000025],[121.00677087200006,14.745995157000044],[121.02215176700008,14.742056176000064],[121.0282412360001,14.745296107000055],[121.03473352300013,14.744799550000039],[121.03049078600007,14.758403531000058],[121.03371389300004,14.761097605000035],[121.03017478400012,14.768070096000033],[121.03011988900006,14.776134367000054]]]}},{"type":"Feature","properties":{"psgc_code":"1380100172","name":"Barangay 172"},"geometry":{"type":"Polygon","coordinates":[[[121.04407738300007,14.742169982000066],[121.04630978800004,14.742882518000044],[121.04369545800012,14.756025241000028],[121.04005686700009,14.753827827000066],[121.03476285500004,14.744312420000027],[121.03867860700008,14.740320998000072],[121.04407738300007,14.742169982000066]]]}},{"type":"Feature","properties":{"psgc_code":"1380100173","name":"Barangay 173"},"geometry":{"type":"Polygon","coordinates":[[[121.04005686700009,14.753827827000066],[121.03621347900003,14.756001732000072],[121.03371389300004,14.761097605000035],[121.03049078600007,14.758403531000058],[121.03473352300013,14.744799550000039],[121.03476285500004,14.744312420000027],[121.04005686700009,14.753827827000066]]]}},{"type":"Feature","properties":{"psgc_code":"1380100174","name":"Barangay 174"},"geometry":{"type":"Polygon","coordinates":[[[121.05317675100002,14.765561845000038],[121.0486036110001,14.767257680000053],[121.04770608000003,14.762462571000075],[121.04377403,14.76019854300006],[121.04369545800012,14.756025241000028],[121.05312266100007,14.756789523000068],[121.05317675100002,14.765561845000038]]]}},{"type":"Feature","properties":{"psgc_code":"1380100175","name":"Barangay 175"},"geometry":{"type":"Polygon","coordinates":[[[121.0486036110001,14.767257680000053],[121.04139415800013,14.770239738000042],[121.03594118,14.775782067000018],[121.03011988900006,14.776134367000054],[121.03017478400012,14.768070096000033],[121.03371389300004,14.761097605000035],[121.03621347900003,14.756001732000072],[121.04005686700009,14.753827827000066],[121.04369545800012,14.756025241000028],[121.04377403,14.76019854300006],[121.04770608000003,14.762462571000075],[121.0486036110001,14.767257680000053]]]}},{"type":"Feature","properties":{"psgc_code":"1380100176","name":"Barangay 176"},"geometry":{"type":"Polygon","coordinates":[[[121.06241200900003,14.775546292000055],[121.06281189200001,14.778688669000076],[121.05542050700002,14.782563240000059],[121.04825023900004,14.782252495000023],[121.04394383900002,14.780403640000033],[121.03890663000006,14.78503162200007],[121.03017164600011,14.782975645000022],[121.02581714200007,14.776249918000074],[121.03011988900006,14.776134367000054],[121.03594118,14.775782067000018],[121.04139415800013,14.770239738000042],[121.0486036110001,14.767257680000053],[121.05317675100002,14.765561845000038],[121.05420289100006,14.765170824000053],[121.05733100300006,14.768244860000037],[121.05708557800007,14.77138030900005],[121.06140441800005,14.772593996000067],[121.06241200900003,14.775546292000055]]]}},{"type":"Feature","properties":{"psgc_code":"1380100177","name":"Barangay 177"},"geometry":{"type":"Polygon","coordinates":[[[121.06727151400003,14.74707775400003],[121.06305003400009,14.750474567000026],[121.05772667400004,14.750221539000053],[121.05364407400009,14.75224469700004],[121.05312266100007,14.756789523000068],[121.04369545800012,14.756025241000028],[121.04630978800004,14.742882518000044],[121.04407738300007,14.742169982000066],[121.06725470200003,14.742203238000055],[121.06727151400003,14.74707775400003]]]}},{"type":"Feature","properties":{"psgc_code":"1380100178","name":"Barangay 178"},"geometry":{"type":"Polygon","coordinates":[[[121.05317675100002,14.765561845000038],[121.05312266100007,14.756789523000068],[121.05364407400009,14.75224469700004],[121.05772667400004,14.750221539000053],[121.06305003400009,14.750474567000026],[121.06727151400003,14.74707775400003],[121.06726230200002,14.758175036000065],[121.068191866,14.759152256000052],[121.06744178800011,14.761656256000041],[121.0665835860001,14.76259173400006],[121.05749186700008,14.762413479000028],[121.05420289100006,14.765170824000053],[121.05317675100002,14.765561845000038]]]}},{"type":"Feature","properties":{"psgc_code":"1380100179","name":"Barangay 179"},"geometry":{"type":"Polygon","coordinates":[[[121.08117307300007,14.758769917000052],[121.068191866,14.759152256000052],[121.06726230200002,14.758175036000065],[121.06727151400003,14.74707775400003],[121.06725470200003,14.742203238000055],[121.068733134,14.740353688000027],[121.0750391780001,14.74019406700006],[121.08120926800008,14.746901344000038],[121.08467216800011,14.753824215000066],[121.08121122400009,14.753864622000034],[121.08117307300007,14.758769917000052]]]}},{"type":"Feature","properties":{"psgc_code":"1380100180","name":"Barangay 180"},"geometry":{"type":"Polygon","coordinates":[[[121.08118805900007,14.768292184000071],[121.07688976600002,14.76613893700005],[121.07690940800002,14.762710542000033],[121.06744178800011,14.761656256000041],[121.068191866,14.759152256000052],[121.08117307300007,14.758769917000052],[121.08142349700007,14.763107838000053],[121.08118805900007,14.768292184000071]]]}},{"type":"Feature","properties":{"psgc_code":"1380100181","name":"Barangay 181"},"geometry":{"type":"Polygon","coordinates":[[[121.09614794200003,14.768308138000066],[121.0923018750001,14.76753104800002],[121.085874998,14.773785710000029],[121.0824619020001,14.774905575000048],[121.08172488800005,14.768032646000055],[121.08656236000003,14.763128452000045],[121.0865374980001,14.760214097000071],[121.09114457200008,14.764968304000032],[121.09397283900013,14.763297889000055],[121.09614794200003,14.768308138000066]]]}},{"type":"Feature","properties":{"psgc_code":"1380100182","name":"Barangay 182"},"geometry":{"type":"Polygon","coordinates":[[[121.08593385900008,14.758682793000048],[121.09102126100005,14.758445970000023],[121.09979889200008,14.762714034000055],[121.09935888700012,14.771236387000046],[121.09614794200003,14.768308138000066],[121.09397283900013,14.763297889000055],[121.09114457200008,14.764968304000032],[121.0865374980001,14.760214097000071],[121.08593385900008,14.758682793000048]]]}},{"type":"Feature","properties":{"psgc_code":"1380100183","name":"Barangay 183"},"geometry":{"type":"Polygon","coordinates":[[[121.0865374980001,14.760214097000071],[121.08656236000003,14.763128452000045],[121.08142349700007,14.763107838000053],[121.08117307300007,14.758769917000052],[121.08121122400009,14.753864622000034],[121.08467216800011,14.753824215000066],[121.08120926800008,14.746901344000038],[121.08478153300007,14.75184930800003],[121.08593385900008,14.758682793000048],[121.0865374980001,14.760214097000071]]]}},{"type":"Feature","properties":{"psgc_code":"1380100184","name":"Barangay 184"},"geometry":{"type":"Polygon","coordinates":[[[121.08656236000003,14.763128452000045],[121.08172488800005,14.768032646000055],[121.0824619020001,14.774905575000048],[121.08118382100008,14.771132211000067],[121.08118805900007,14.768292184000071],[121.08142349700007,14.763107838000053],[121.08656236000003,14.763128452000045]]]}},{"type":"Feature","properties":{"psgc_code":"1380100185","name":"Barangay 185"},"geometry":{"type":"Polygon","coordinates":[[[121.08118382100008,14.771132211000067],[121.07670666200012,14.77495232100006],[121.0726967710001,14.771987201000059],[121.07393070100012,14.764842204000049],[121.07690940800002,14.762710542000033],[121.07688976600002,14.76613893700005],[121.08118805900007,14.768292184000071],[121.08118382100008,14.771132211000067]]]}},{"type":"Feature","properties":{"psgc_code":"1380100186","name":"Barangay 186"},"geometry":{"type":"Polygon","coordinates":[[[121.0726967710001,14.771987201000059],[121.0667343,14.773686868000027],[121.06475613600004,14.769293736000064],[121.06586104300006,14.765878703000052],[121.0665835860001,14.76259173400006],[121.06744178800011,14.761656256000041],[121.07690940800002,14.762710542000033],[121.07393070100012,14.764842204000049],[121.0726967710001,14.771987201000059]]]}},{"type":"Feature","properties":{"psgc_code":"1380100187","name":"Barangay 187"},"geometry":{"type":"Polygon","coordinates":[[[121.05733100300006,14.768244860000037],[121.05420289100006,14.765170824000053],[121.05749186700008,14.762413479000028],[121.0665835860001,14.76259173400006],[121.06586104300006,14.765878703000052],[121.05733100300006,14.768244860000037]]]}},{"type":"Feature","properties":{"psgc_code":"1380100188","name":"Barangay 188"},"geometry":{"type":"Polygon","coordinates":[[[121.0667343,14.773686868000027],[121.06241200900003,14.775546292000055],[121.06140441800005,14.772593996000067],[121.05708557800007,14.77138030900005],[121.05733100300006,14.768244860000037],[121.06586104300006,14.765878703000052],[121.06475613600004,14.769293736000064],[121.0667343,14.773686868000027]]]}}]}